0192P         2024 05 24.9375  1.471748  0.772828  312.9089   51.6418   24.5362  20200713  15.0  4.0  192P/Shoemaker-Levy                                      MPC 75724
0193P         2021 08 25.7051  2.166787  0.394065    8.2466  335.1908   10.6868  20200713  14.0  4.0  193P/LINEAR-NEAT                                         MPC 92277
0194P         2024 02 15.5104  1.681773  0.578058  130.7897  351.5518   11.1878  20200713  16.0  4.0  194P/LINEAR                                              MPC 98566
0195P         2025 07 29.9069  4.463193  0.313240  249.4558  243.1016   36.3405  20200713   8.5  4.0  195P/Hill                                                MPC 75724
0196P         2022 10 30.2323  2.170211  0.428609   12.3071   24.2031   19.3002  20200713  13.5  4.0  196P/Tichy                                               MPC 92985
0197P         2022 12  7.3460  1.061233  0.629887  188.7373   66.3939   25.5474  20200713  16.5  2.0  197P/LINEAR                                              MPC 94676
0198P         2018 12 13.7728  2.004914  0.443129   69.2505  358.2509    1.3386  20200713   9.0  4.0  198P/ODAS                                                NK   1596
0199P         2023 08  7.5519  2.912973  0.506092  191.5840   92.3985   24.9352  20200713  10.0  4.0  199P/Shoemaker                                           MPC 75725
0200P         2019 07 28.7281  3.297317  0.332223  134.0121  234.8032   12.1039  20200713   9.0  4.0  200P/Larsen                                              MPC118098
0201P         2021 05 26.5247  1.217656  0.637474   41.3857   19.8465    5.7364  20200713  14.0  4.0  201P/LONEOS                                              MPC 93588
0202P         2024 05  9.1184  2.864600  0.283469  275.5998  181.3535    2.0314  20200713  13.5  4.0  202P/Scotti                                              MPC103849
0203P         2020 03  4.9516  3.199712  0.315002  154.8591  290.3487    2.9733  20200713  14.5  2.0  203P/Korlevic                                            MPEC 2019-TG9
0204P         2022 11 17.7799  1.875829  0.482649  354.9911  108.8417    6.6387  20200713  14.0  4.0  204P/LINEAR-NEAT                                         MPC 98566
0205P         2022 01 13.4820  1.530995  0.567863  154.1886  179.6002   15.3019  20200713  13.0  4.0  205P/Giacobini                                           MPC 98566
0206P         2021 03  4.4644  1.564838  0.551438  189.4411  202.3615   33.6304  20200713  19.0  4.0  206P/Barnard-Boattini                                    MPC 75725
0207P         2024 02  3.2315  0.926884  0.760188  272.0884  199.4462   10.1522  20200713  16.0  4.0  207P/NEAT                                                MPC 75725
0208P         2016 07  2.7717  2.536101  0.373352  310.3926   36.3639    4.4091  20200713  12.5  4.0  208P/McMillan                                            MPC101100
0209P         2019 06 12.7664  0.967399  0.673218  152.4852   62.7671   21.2581  20200713  17.0  2.0  209P/LINEAR                                              MPC 90771
0210P         2020 04  7.9227  0.527977  0.833214  345.9070   93.8353   10.2619  20200713  13.5  4.0  210P/Christensen                                         MPC105242
0211P         2022 10  4.9508  2.332966  0.342570    4.1394  117.1391   18.9218  20200713  12.5  4.0  211P/Hill                                                MPC 96868
0212P         2024 05  1.3536  1.592906  0.589517   14.1997   98.6547   22.5788  20200713  17.0  2.0  212P/NEAT                                                MPC104795
0213P         2017 09 25.0209  1.981739  0.408118    5.6051  311.3000   10.3826  20200713  10.5  4.0  213P/Van Ness                                            MPC114608
0214P         2022 09 26.3759  1.858846  0.485954  190.2831  348.2601   15.1855  20200713  13.0  4.0  214P/LINEAR                                              MPC 92986
0215P         2019 11 18.2835  3.604902  0.167047  262.0786   56.6834   10.5815  20200713  11.0  4.0  215P/NEAT                                                MPC118098
0216P         2024 01  9.4857  2.145677  0.445573  151.3668  359.8187    9.0516  20200713  13.0  4.0  216P/LINEAR                                              MPC100284
0217P         2017 07 16.8672  1.231771  0.688293  246.8456  125.4780   12.8644  20200713  12.0  4.0  217P/LINEAR                                              MPC108598
0218P         2020 10  3.7758  1.169913  0.621871   59.7842  175.9758    2.7255  20200713  16.0  4.0  218P/LINEAR                                              MPEC 2020-N31
0219P         2017 02 21.4718  2.359982  0.353582  107.3609  230.9967   11.5293  20200713  11.0  4.0  219P/LINEAR                                              MPC100284
0220P         2020 12 10.6578  1.552217  0.501881  180.5463  150.1073    8.1280  20200713  15.0  4.0  220P/McNaught                                            MPEC 2020-N31
0221P         2021 12 17.9427  1.753599  0.492836   40.0474  229.7215   11.4261  20200713  14.5  4.0  221P/LINEAR                                              MPC 93589
0222P         2019 06  5.0994  0.827998  0.714420  346.2287    6.7949    5.0951  20200713  20.0  4.0  222P/LINEAR                                              MPC 92277
0223P         2019 01 27.2852  2.430196  0.415693   37.8194  346.7747   27.0173  20200713  12.0  4.0  223P/Skiff                                               MPEC 2020-HN5
0224P         2022 09 29.8292  2.033721  0.408412   16.7908   40.3439   13.3214  20200713  15.5  4.0  224P/LINEAR-NEAT                                         MPC 75727
0225P         2023 08  8.6516  1.322956  0.637648    3.8664   14.1840   21.3499  20200713  18.0  4.0  225P/LINEAR                                              MPC 75727
0226P         2023 12 28.1828  1.777691  0.528199  341.0507   54.0046   44.0081  20200713  12.5  4.0  226P/Pigott-LINEAR-Kowalski                              MPC106349
0227P         2017 06 23.9907  1.763582  0.505953   90.1513   49.3956    6.5084  20200713  16.5  2.0  227P/Catalina-LINEAR                                     MPC102956
0228P         2020 03 10.5601  3.435806  0.176731  115.2846   30.9842    7.9100  20200713  14.5  2.0  228P/LINEAR                                              MPEC 2020-L06
0229P         2017 05 20.6877  2.451006  0.376544  223.9776  157.8998   26.0862  20200713  13.0  4.0  229P/Gibbs                                               MPC106349
0230P         2022 03 18.2042  1.556745  0.548568  313.6508  107.0205   15.5159  20200713  13.0  4.0  230P/LINEAR                                              MPC110497
0231P         2019 06 14.8910  3.023567  0.247657   42.8966  133.0232   12.3344  20200713  14.5  2.0  231P/LINEAR-NEAT                                         MPEC 2020-N31
0232P         2019 04  6.2084  2.984003  0.334266   53.4814   56.0206   14.6312  20200713  11.5  4.0  232P/Hill                                                MPC112394
0233P         2020 10  1.6820  1.782652  0.411773   27.0629   74.9272   11.2840  20200713  15.0  4.0  233P/La Sagra                                            MPC 92986
0234P         2017 05 29.3440  2.836515  0.254113  357.3760  179.5676   11.5248  20200713  12.0  4.0  234P/LINEAR                                              MPC110497
0235P         2018 03 16.6176  2.708933  0.319736  333.5055  203.8686    8.8887  20200713  12.0  4.0  235P/LINEAR                                              MPC110497
0236P         2017 11 20.4572  1.833949  0.508479  119.1981  245.6531   16.3339  20200713  14.0  4.0  236P/LINEAR                                              MPC107688
0237P         2023 05 14.0379  1.985451  0.434730   25.1770  245.4146   14.0207  20200713  14.5  2.0  237P/LINEAR                                              MPC109593
0238P         2022 06  6.9815  2.365262  0.252324  324.6890   51.6431    1.2645  20200713  14.5  4.0  238P/Read                                                MPC107688
0239P         2019 01 10.0458  1.651732  0.630599  220.4401  255.9139   11.3020  20200713  17.5  2.0  239P/LINEAR                                              MPC112394
0240P         2018 05 15.5535  2.132526  0.448706  352.0017   74.9226   23.5053  20200713  11.0  4.0  240P/NEAT                                                MPC109593
0241P         2021 07 25.4910  1.919495  0.610591  111.2903  305.4820   21.1031  20200713  13.5  4.0  241P/LINEAR                                              MPC 75729
0242P         2025 01  4.8258  3.955495  0.277908  246.2219  180.4769   32.4814  20200713   8.0  4.0  242P/Spahr                                               MPC 81861
0243P         2018 08 26.0845  2.453007  0.359781  283.5205   87.6553    7.6413  20200713  12.5  4.0  243P/NEAT                                                MPC111774
0244P         2022 11 16.0161  3.924415  0.198362   92.8662  353.9903    2.2591  20200713   9.0  4.0  244P/Scotti                                              MPC 88331
0245P         2018 02  8.8367  2.192589  0.457625  316.8189  316.6506   21.1971  20200713  14.0  4.0  245P/WISE                                                MPC111774
0246P         2021 02 22.6899  2.864065  0.286773  176.2691   78.7478   15.9872  20200713  10.5  4.0  246P/NEAT                                                MPEC 2020-N31
0247P         2018 12  1.9149  1.490853  0.624504   47.4869   54.0118   13.6558  20200713  16.5  2.0  247P/LINEAR                                              MPC112394
0248P         2025 09 17.7377  2.169453  0.637870  209.9117  207.7491    6.3467  20200713  14.0  4.0  248P/Gibbs                                               MPC 75730
0249P         2020 06 29.4975  0.496754  0.820153   65.6056  239.1764    8.3969  20200713  15.5  4.0  249P/LINEAR                                              MPEC 2020-N31
